{
  "norad_id": 55758,
  "name": "STARLINK-5072",
  "history": [
    {
      "epoch": "2026-03-28T17:18:30.052224",
      "apogee_km": 574.3250317390975,
      "perigee_km": 569.7504267323138,
      "latitude_deg": -6.162539755202288,
      "longitude_deg": -174.96660864003934,
      "semi_major_axis_km": 6950.174729235705,
      "eccentricity": 0.0003291,
      "inclination_deg": 70.0008,
      "raan_deg": 196.3591,
      "arg_perigee_deg": 270.9442,
      "mean_anomaly_deg": 89.134,
      "mean_motion_rev_day": 14.98335873
    }
  ]
}