{"fetched_at":"2026-03-30T06:02:59Z","count":15439,"tles":[{"name":"STARLINK-5072","line1":"1 55758U 23028T   26087.72118116  .00000610  00000+0  58926-4 0  9995","line2":"2 55758  70.0008 196.3591 0003291 270.9442  89.1340 14.98335873168892","category":"Starlink"}]}